NORAD_CAT_ID,OBJECT_NAME,OBJECT_TYPE,EPOCH,MEAN_MOTION,ECCENTRICITY,INCLINATION,RA_OF_ASC_NODE,ARG_OF_PERICENTER,MEAN_ANOMALY,BSTAR,MEAN_MOTION_DOT,MEAN_MOTION_DDOT,TLE_LINE0,TLE_LINE1,TLE_LINE2,SEMIMAJOR_AXIS,PERIOD,APOGEE,PERIGEE,DECAYED
49421.0,STARLINK-3112,PAYLOAD,2022-02-07 22:00:00,15.08797019,0.0001646,53.2168,81.4455,50.6129,110.1485,0.0018772,0.00029679,0.0,0 STARLINK-3112,1 49421U 21104P   22038.91667824  .00029679  00000-0  18772-2 0  9996,2 49421  53.2168  81.4455 0001646  50.6129 110.1485 15.08797019 14657,6918.012,95.44,541.015,538.738,0.0
49421.0,STARLINK-3112,PAYLOAD,2022-02-08 14:00:01,15.08804692,0.0001868,53.2167,78.4547,46.0512,137.8425,0.0027647,0.00043945,0.0,0 STARLINK-3112,1 49421U 21104P   22039.58334491  .00043945  00000-0  27647-2 0  9994,2 49421  53.2167  78.4547 0001868  46.0512 137.8425 15.08804692  3615,6917.988,95.44,541.146,538.561,0.0
49421.0,STARLINK-3112,PAYLOAD,2022-02-08 22:00:01,15.08811405,0.0001708,53.2167,76.9565,51.3338,144.2015,0.002247,0.00035626,0.0,0 STARLINK-3112,1 49421U 21104P   22039.91668981  .00035626  00000-0  22470-2 0  9991,2 49421  53.2167  76.9565 0001708  51.3338 144.2015 15.08811405 14806,6917.968000000003,95.439,541.014,538.651,0.0
49421.0,STARLINK-3112,PAYLOAD,2022-02-09 14:00:01,15.08827207,0.0001943,53.2166,73.9657,46.6089,172.0359,0.0023339,0.00037039,0.0,0 STARLINK-3112,1 49421U 21104P   22040.58334491  .00037039  00000-0  23339-2 0  9997,2 49421  53.2166  73.9657 0001943  46.6089 172.0359 15.08827207 14903,6917.919,95.438,541.129,538.44,0.0
49421.0,STARLINK-3112,PAYLOAD,2022-02-10 06:00:00,15.08866056,0.0001931,53.2169,70.9722,51.6089,190.2317,-0.0013019,-0.00020963,0.0,0 STARLINK-3112,1 49421U 21104P   22041.25001157 -.00020963  00000-0 -13019-2 0  9996,2 49421  53.2169  70.9722 0001931  51.6089 190.2317 15.08866056 15002,6917.801,95.436,541.002,538.33,0.0
49421.0,STARLINK-3112,PAYLOAD,2022-02-10 14:00:01,15.08849663,0.0002037,53.2168,69.4765,46.8863,206.6337,0.0017132,0.0002709,0.0,0 STARLINK-3112,1 49421U 21104P   22041.58335648  .00027090  00000-0  17132-2 0  9993,2 49421  53.2168  69.4765 0002037  46.8863 206.6337 15.08849663  3584,6917.851,95.437,541.125,538.307,0.0
49421.0,STARLINK-3112,PAYLOAD,2022-02-10 22:00:00,15.08831766,0.0002003,53.2173,67.9852,55.2508,209.902,0.00051924,7.983e-05,0.0,0 STARLINK-3112,1 49421U 21104P   22041.91667824  .00007983  00000-0  51924-3 0  9991,2 49421  53.2173  67.9852 0002003  55.2508 209.9020 15.08831766 15104,6917.906,95.438,541.156,538.385,0.0
49421.0,STARLINK-3112,PAYLOAD,2022-02-11 14:00:01,15.08861824,0.000205,53.2171,64.9872,45.7801,242.5865,0.0014243,0.00022466,0.0,0 STARLINK-3112,1 49421U 21104P   22042.58334491  .00022466  00000-0  14243-2 0  9991,2 49421  53.2171  64.9872 0002050  45.7801 242.5865 15.08861824 15202,6917.814,95.436,541.097,538.261,0.0
49421.0,STARLINK-3112,PAYLOAD,2022-02-11 22:00:01,15.08866482,0.0001841,53.2174,63.489,50.1755,249.8964,0.00053715,8.277e-05,0.0,0 STARLINK-3112,1 49421U 21104P   22042.91668981  .00008277  00000-0  53715-3 0  9994,2 49421  53.2174  63.4890 0001841  50.1755 249.8964 15.08866482  3598,6917.799,95.436,540.938,538.391,0.0
49421.0,STARLINK-3112,PAYLOAD,2022-02-12 14:00:01,15.08823766,0.0001845,53.2174,60.4978,38.5364,284.6949,-0.0012218,-0.00019672,0.0,0 STARLINK-3112,1 49421U 21104P   22043.58334491 -.00019672  00000-0 -12218-2 0  9999,2 49421  53.2174  60.4978 0001845  38.5364 284.6949 15.08823766 15357,6917.93,95.439,541.071,538.519,0.0
49421.0,STARLINK-3112,PAYLOAD,2022-02-12 22:00:00,15.08793127,0.000161,53.2176,58.9998,42.6847,292.125,-0.00021399,-3.688e-05,0.0,0 STARLINK-3112,1 49421U 21104P   22043.91667824 -.00003688  00000-0 -21399-3 0  9996,2 49421  53.2176  58.9998 0001610  42.6847 292.1250 15.08793127  3594,6918.024,95.441,541.002,538.775,0.0
49421.0,STARLINK-3112,PAYLOAD,2022-02-13 14:00:01,15.08823243,0.0001863,53.2174,56.0088,38.5734,319.3121,6.7345e-05,7.83e-06,0.0,0 STARLINK-3112,1 49421U 21104P   22044.58334491  .00000783  00000-0  67345-4 0  9994,2 49421  53.2174  56.0088 0001863  38.5734 319.3121 15.08823243 15506,6917.932,95.439,541.085,538.508,0.0
49421.0,STARLINK-3112,PAYLOAD,2022-02-14 14:00:01,15.08843646,0.0001876,53.2172,51.5196,40.1738,352.4416,-0.00054336,-8.926e-05,0.0,0 STARLINK-3112,1 49421U 21104P   22045.58334491 -.00008926  00000-0 -54336-3 0  9999,2 49421  53.2172  51.5196 0001876  40.1738 352.4416 15.08843646  3603,6917.869000000002,95.437,541.0319999999998,538.436,0.0
49421.0,STARLINK-3112,PAYLOAD,2022-02-14 22:00:00,15.08819196,0.0001693,53.2172,50.0217,47.2286,356.99,0.003232,0.00051496,0.0,0 STARLINK-3112,1 49421U 21104P   22045.91667824  .00051496  00000-0  32320-2 0  9991,2 49421  53.2172  50.0217 0001693  47.2286 356.9900 15.08819196 15719,6917.944,95.439,540.98,538.638,0.0
49421.0,STARLINK-3112,PAYLOAD,2022-02-15 14:00:01,15.08861218,0.0001913,53.2168,47.0302,42.6672,24.7425,-0.00089909,-0.00014577,0.0,0 STARLINK-3112,1 49421U 21104P   22046.58334491 -.00014577  00000-0 -89909-3 0  9993,2 49421  53.2168  47.0302 0001913  42.6672  24.7425 15.08861218  3573,6917.816,95.436,541.004,538.357,0.0
49421.0,STARLINK-3112,PAYLOAD,2022-02-15 22:00:01,15.08848927,0.0001812,53.2168,45.5323,50.3906,28.6996,-0.00035216,-5.89e-05,0.0,0 STARLINK-3112,1 49421U 21104P   22046.91668981 -.00005890  00000-0 -35216-3 0  9994,2 49421  53.2168  45.5323 0001812  50.3906  28.6996 15.08848927  3593,6917.853,95.437,540.972,538.465,0.0
49421.0,STARLINK-3112,PAYLOAD,2022-02-16 14:00:01,15.08847822,0.0002055,53.2166,42.5408,47.0416,55.1712,-0.0011946,-0.00019254,0.0,0 STARLINK-3112,1 49421U 21104P   22047.58334491 -.00019254  00000-0 -11946-2 0  9996,2 49421  53.2166  42.5408 0002055  47.0416  55.1712 15.08847822  3595,6917.856,95.437,541.143,538.3,0.0
49421.0,STARLINK-3112,PAYLOAD,2022-02-16 22:00:00,15.08826269,0.0001956,53.2169,41.0429,53.5035,60.3081,0.0024777,0.00039351,0.0,0 STARLINK-3112,1 49421U 21104P   22047.91667824  .00039351  00000-0  24777-2 0  9996,2 49421  53.2169  41.0429 0001956  53.5035  60.3081 15.08826269  3570,6917.922,95.438,541.141,538.434,0.0
49421.0,STARLINK-3112,PAYLOAD,2022-02-17 14:00:01,15.08878924,0.0002111,53.2168,38.0514,47.8721,89.1365,-0.0033311,-0.00052971,0.0,0 STARLINK-3112,1 49421U 21104P   22048.58334491 -.00052971  00000-0 -33311-2 0  9990,2 49421  53.2168  38.0514 0002111  47.8721  89.1365 15.08878924 16115,6917.761,95.435,541.087,538.1659999999998,0.0
49421.0,STARLINK-3112,PAYLOAD,2022-02-17 22:00:00,15.08828431,0.0001975,53.2171,36.5536,52.8194,95.8136,0.0017512,0.00027684,0.0,0 STARLINK-3112,1 49421U 21104P   22048.91667824  .00027684  00000-0  17512-2 0  9992,2 49421  53.2171  36.5536 0001975  52.8194  95.8136 15.08828431  3601,6917.916,95.438,541.1469999999998,538.414,0.0
49421.0,STARLINK-3112,PAYLOAD,2022-02-18 06:00:00,15.08839363,0.0002158,53.2172,35.059,48.2199,112.0036,-0.00022547,-3.875e-05,0.0,0 STARLINK-3112,1 49421U 21104P   22049.25001157 -.00003875  00000-0 -22547-3 0  9994,2 49421  53.2172  35.0590 0002158  48.2199 112.0036 15.08839363 16212,6917.882,95.438,541.24,538.254,0.0
49421.0,STARLINK-3112,PAYLOAD,2022-02-18 14:00:01,15.0886678,0.000209,53.2174,33.562,46.6747,125.1368,-0.004524,-0.00071627,0.0,0 STARLINK-3112,1 49421U 21104P   22049.58334491 -.00071627  00000-0 -45240-2 0  9994,2 49421  53.2174  33.5620 0002090  46.6747 125.1368 15.08866780  3602,6917.799,95.436,541.109,538.2180000000002,0.0
49421.0,STARLINK-3112,PAYLOAD,2022-02-18 22:00:00,15.08814031,0.0001985,53.2178,32.0644,51.3692,132.0384,0.0018729,0.00029624,0.0,0 STARLINK-3112,1 49421U 21104P   22049.91667824  .00029624  00000-0  18729-2 0  9990,2 49421  53.2178  32.0644 0001985  51.3692 132.0384 15.08814031  3595,6917.96,95.439,541.198,538.452,0.0
49421.0,STARLINK-3112,PAYLOAD,2022-02-19 14:00:01,15.08853031,0.0002137,53.2181,29.0729,47.3423,159.2224,-0.001767,-0.00028311,0.0,0 STARLINK-3112,1 49421U 21104P   22050.58334491 -.00028311  00000-0 -17670-2 0  9994,2 49421  53.2181  29.0729 0002137  47.3423 159.2224 15.08853031 16418,6917.840999999999,95.437,541.184,538.227,0.0
49421.0,STARLINK-3112,PAYLOAD,2022-02-19 22:00:00,15.08840108,0.0002071,53.2186,27.5756,52.7866,165.3797,0.0017747,0.0002807,0.0,0 STARLINK-3112,1 49421U 21104P   22050.91667824  .00028070  00000-0  17747-2 0  9995,2 49421  53.2186  27.5756 0002071  52.7866 165.3797 15.08840108  3560,6917.88,95.438,541.178,538.312,0.0
49421.0,STARLINK-3112,PAYLOAD,2022-02-20 06:00:00,15.08858624,0.0002238,53.2186,26.0811,47.8249,181.9501,-0.001476,-0.00023715,0.0,0 STARLINK-3112,1 49421U 21104P   22051.25001157 -.00023715  00000-0 -14760-2 0  9999,2 49421  53.2186  26.0811 0002238  47.8249 181.9501 15.08858624 16519,6917.823,95.436,541.237,538.14,0.0
49421.0,STARLINK-3112,PAYLOAD,2022-02-20 14:00:01,15.08852483,0.0002108,53.2187,24.5838,47.3765,194.0073,-0.001846,-0.00029558,0.0,0 STARLINK-3112,1 49421U 21104P   22051.58334491 -.00029558  00000-0 -18460-2 0  9997,2 49421  53.2187  24.5838 0002108  47.3765 194.0073 15.08852483  3563,6917.842,95.437,541.1659999999998,538.249,0.0
49421.0,STARLINK-3112,PAYLOAD,2022-02-20 22:00:00,15.08842319,0.000201,53.2191,23.0868,52.5306,200.4461,0.0010042,0.00015731,0.0,0 STARLINK-3112,1 49421U 21104P   22051.91667824  .00015731  00000-0  10042-2 0  9997,2 49421  53.2191  23.0868 0002010  52.5306 200.4461 15.08842319  3566,6917.873000000001,95.437,541.129,538.3480000000002,0.0
49421.0,STARLINK-3112,PAYLOAD,2022-02-21 06:00:00,15.08833047,0.0002174,53.219,21.5923,46.4151,218.1696,-0.00087744,-0.00014223,0.0,0 STARLINK-3112,1 49421U 21104P   22052.25001157 -.00014223  00000-0 -87744-3 0  9997,2 49421  53.2190  21.5923 0002174  46.4151 218.1696 15.08833047 16660,6917.901999999999,95.438,541.271,538.263,0.0
